     2.100          NAVIGATION                              RINEX VERSION / TYPE
fic2rin                                 02/26/2018 00:08:31 PGM / RUN BY / DATE
                                                            END OF HEADER
16 18  2 25  6  0  0.0  .315401703119D-04 -.795807864051D-12  .000000000000D+00
     .530000000000D+02  .836875000000D+02  .398445168269D-08 -.456184724622D+00
     .456906855106D-05  .989984779153D-02  .581704080105D-05  .515358991814D+04
     .216000000000D+05  .838190317154D-07 -.313658391321D+01  .109896063805D-06
     .988109736017D+00  .278875000000D+03  .472369676367D+00 -.807533637017D-08
     .238581366443D-09  .100000000000D+01  .199000000000D+04  .000000000000D+00
     .240000000000D+01  .000000000000D+00 -.107102096081D-07  .530000000000D+02
     .144060000000D+05  .400000000000D+01
17 18  2 25  6  0  0.0 -.120453536510D-03  .306954461848D-11  .000000000000D+00
     .610000000000D+02 -.488125000000D+02  .434732394063D-08 -.149001719279D+01
    -.224821269512D-05  .123530589044D-01  .409595668316D-05  .515376613045D+04
     .216000000000D+05  .763684511185D-07 -.212120690855D+01  .268220901489D-06
     .981949490389D+00  .309562500000D+03 -.178735028190D+01 -.812533845296D-08
    -.478591363823D-10  .100000000000D+01  .199000000000D+04  .000000000000D+00
     .240000000000D+01  .000000000000D+00 -.111758708954D-07  .610000000000D+02
     .144060000000D+05  .400000000000D+01
20 18  2 25  6  0  0.0  .501746311784D-03  .909494701773D-12  .000000000000D+00
     .173000000000D+03 -.246875000000D+01  .530557814148D-08 -.256321537328D+01
    -.782310962677D-07  .441927369684D-02  .921823084354D-05  .515378712463D+04
     .216000000000D+05  .596046447754D-07 -.181448649356D+00  .651925802231D-07
     .928393164010D+00  .183843750000D+03  .179403525723D+01 -.827570185906D-08
     .386087510666D-09  .100000000000D+01  .199000000000D+04  .000000000000D+00
     .240000000000D+01  .000000000000D+00 -.838190317154D-08  .173000000000D+03
     .144060000000D+05  .400000000000D+01
21 18  2 25  6  0  0.0 -.426415819675D-03  .443378667114D-11  .000000000000D+00
     .101000000000D+03 -.116187500000D+03  .497877881469D-08  .969152139042D+00
    -.621005892754D-05  .244495916413D-01  .976957380772D-05  .515376607513D+04
     .216000000000D+05 -.406056642532D-06 -.116936717613D+01 -.292435288429D-06
     .942677852465D+00  .194218750000D+03 -.158920604632D+01 -.862893085818D-08
    -.928610108910D-11  .100000000000D+01  .199000000000D+04  .000000000000D+00
     .240000000000D+01  .000000000000D+00 -.102445483208D-07  .101000000000D+03
     .144060000000D+05  .400000000000D+01
22 18  2 25  6  0  0.0 -.303323380649D-03 -.129602995003D-10  .000000000000D+00
     .590000000000D+02  .506250000000D+01  .535450875107D-08 -.203880428219D+01
     .281259417534D-06  .731837796047D-02  .855140388012D-05  .515358162308D+04
     .216000000000D+05  .558793544769D-07 -.131173699431D+00  .838190317154D-07
     .925111477418D+00  .191562500000D+03 -.160534384675D+01 -.830141721592D-08
     .357514891930D-09  .100000000000D+01  .199000000000D+04  .000000000000D+00
     .240000000000D+01  .000000000000D+00 -.176951289177D-07  .590000000000D+02
     .144060000000D+05  .400000000000D+01
23 18  2 25  6  0  0.0 -.218843109906D-03  .113686837722D-12  .000000000000D+00
     .101000000000D+03 -.781250000000D+01  .510592696807D-08 -.272037300524D+01
    -.573694705963D-06  .120338154957D-01  .699609518051D-05  .515358523750D+04
     .216000000000D+05  .409781932831D-07  .958332749491D+00 -.188127160072D-06
     .943593054015D+00  .234468750000D+03 -.239369385260D+01 -.816855453880D-08
    -.159292349451D-09  .100000000000D+01  .199000000000D+04  .000000000000D+00
     .240000000000D+01  .000000000000D+00 -.200234353542D-07  .101000000000D+03
     .144060000000D+05  .400000000000D+01
24 18  2 25  6  0  0.0 -.465079210699D-04 -.568434188608D-12  .000000000000D+00
     .550000000000D+02  .538437500000D+02  .463483591666D-08  .296334158328D+01
     .275857746601D-05  .683529360685D-02  .106468796730D-04  .515366288757D+04
     .216000000000D+05 -.167638063431D-07  .197934697291D+01 -.875443220139D-07
     .942270077217D+00  .164500000000D+03  .531941015718D+00 -.800354766560D-08
    -.302512600864D-09  .100000000000D+01  .199000000000D+04  .000000000000D+00
     .240000000000D+01  .000000000000D+00  .279396772385D-08  .550000000000D+02
     .144060000000D+05  .400000000000D+01
25 18  2 25  6  0  0.0 -.544254202396D-03 -.613908923697D-11  .000000000000D+00
     .670000000000D+02  .103343750000D+03  .424410535545D-08  .999557763410D+00
     .521913170815D-05  .722746236715D-02  .607036054134D-05  .515368604851D+04
     .216000000000D+05 -.447034835815D-07  .306912368132D+01  .335276126862D-07
     .975367150471D+00  .268781250000D+03  .815542035148D+00 -.824284334751D-08
     .187507810453D-09  .100000000000D+01  .199000000000D+04  .000000000000D+00
     .240000000000D+01  .000000000000D+00  .558793544769D-08  .670000000000D+02
     .144060000000D+05  .400000000000D+01
26 18  2 25  6  0  0.0 -.238274224102D-03  .135287336889D-10  .000000000000D+00
     .870000000000D+02  .908125000000D+02  .461626371448D-08  .493314723624D+00
     .476278364658D-05  .270053115673D-02  .602193176746D-05  .515361727905D+04
     .216000000000D+05  .111758708954D-07  .304882929760D+01 -.745058059692D-08
     .956951021903D+00  .259468750000D+03  .322190707851D-01 -.829391690350D-08
     .206080012631D-09  .100000000000D+01  .199000000000D+04  .000000000000D+00
     .240000000000D+01  .000000000000D+00  .745058059692D-08  .870000000000D+02
     .144060000000D+05  .400000000000D+01
27 18  2 25  6  0  0.0  .368170905858D-03  .102318153949D-11  .000000000000D+00
     .810000000000D+02 -.404375000000D+02  .444161358246D-08 -.131667217917D+01
    -.221841037273D-05  .556763017084D-02  .286847352982D-05  .515367600060D+04
     .216000000000D+05  .104308128357D-06 -.217475264048D+01 -.115483999252D-06
     .976755083758D+00  .331312500000D+03  .356741822197D+00 -.822498546080D-08
     .260725145963D-10  .100000000000D+01  .199000000000D+04  .000000000000D+00
     .240000000000D+01  .000000000000D+00  .186264514923D-08  .810000000000D+02
     .144060000000D+05  .400000000000D+01
28 18  2 25  6  0  0.0  .691871624440D-03  .352429196937D-11  .000000000000D+00
     .140000000000D+02  .712187500000D+02  .411802867528D-08 -.499580112100D+00
     .375695526600D-05  .196926568169D-01  .581517815590D-05  .515367415810D+04
     .216000000000D+05 -.225380063057D-06 -.313227443889D+01  .130385160446D-06
     .986959529843D+00  .288625000000D+03 -.152543372558D+01 -.833034699239D-08
     .313584490624D-09  .100000000000D+01  .199000000000D+04  .000000000000D+00
     .340000000000D+01  .000000000000D+00 -.111758708954D-07  .140000000000D+02
     .144060000000D+05  .400000000000D+01
29 18  2 25  6  0  0.0  .491208396852D-03 -.568434188608D-11  .000000000000D+00
     .550000000000D+02 -.632187500000D+02  .436982487789D-08  .272651722753D-01
    -.327825546265D-05  .535180326551D-03  .344589352608D-05  .515373192215D+04
     .216000000000D+05  .149011611938D-07 -.211072939418D+01  .335276126862D-07
     .983181735546D+00  .328875000000D+03  .743891369513D+00 -.824927218673D-08
    -.953611150304D-10  .100000000000D+01  .199000000000D+04  .000000000000D+00
     .240000000000D+01  .000000000000D+00 -.102445483208D-07  .550000000000D+02
     .144060000000D+05  .400000000000D+01
30 18  2 25  6  0  0.0  .100399833173D-03 -.352429196937D-11  .000000000000D+00
     .870000000000D+02  .497812500000D+02  .469876715108D-08  .221839336078D+01
     .262446701527D-05  .306303310208D-02  .976584851742D-05  .515377235603D+04
     .216000000000D+05 -.260770320892D-07  .207245248350D+01  .242143869400D-07
     .944898847378D+00  .183312500000D+03 -.313497100506D+01 -.808390815579D-08
    -.281083136812D-09  .100000000000D+01  .199000000000D+04  .000000000000D+00
     .240000000000D+01  .000000000000D+00  .372529029846D-08  .870000000000D+02
     .144060000000D+05  .400000000000D+01
31 18  2 25  6  0  0.0  .139392912388D-03 -.261479726760D-11  .000000000000D+00
     .720000000000D+02  .478125000000D+02  .414731560948D-08  .183033837543D+01
     .270269811153D-05  .880851538386D-02  .112336128950D-04  .515362040329D+04
     .216000000000D+05 -.819563865662D-07  .204964102048D+01  .800937414169D-07
     .963928238520D+00  .163656250000D+03 -.147812148466D+00 -.777818113532D-08
    -.407516974718D-09  .100000000000D+01  .199000000000D+04  .000000000000D+00
     .240000000000D+01  .000000000000D+00 -.135041773319D-07  .720000000000D+02
     .144060000000D+05  .400000000000D+01
32 18  2 25  6  0  0.0 -.531144905835D-03  .136424205266D-11  .000000000000D+00
     .700000000000D+01 -.353125000000D+01  .494484882994D-08 -.579761050129D+00
    -.314787030220D-06  .173935142811D-02  .680610537529D-05  .515362814331D+04
     .216000000000D+05  .763684511185D-07  .963634091045D+00  .186264514923D-07
     .957161335394D+00  .248593750000D+03 -.268171366437D+01 -.823534303509D-08
    -.300369654459D-09  .100000000000D+01  .199000000000D+04  .000000000000D+00
     .240000000000D+01  .000000000000D+00  .465661287308D-09  .700000000000D+01
     .144060000000D+05  .400000000000D+01
 9 18  2 25  7  0  0.0  .503288116306D-03  .238742359215D-11  .000000000000D+00
     .101000000000D+03 -.715625000000D+01  .498735060031D-08 -.643071237973D+00
    -.460073351860D-06  .115012389142D-02  .705383718014D-05  .515366939735D+04
     .252000000000D+05 -.409781932831D-07  .959075914801D+00  .745058059692D-08
     .952754337105D+00  .239250000000D+03  .177708813394D+01 -.826534428477D-08
    -.233224000430D-09  .100000000000D+01  .199000000000D+04  .000000000000D+00
     .340000000000D+01  .000000000000D+00  .139698386192D-08  .101000000000D+03
     .144060000000D+05  .600000000000D+01
